[{"OBJECT_NAME":"STARLINK-4178","OBJECT_ID":"2022-086AM","EPOCH":"2026-03-09T14:50:42.829728","MEAN_MOTION":15.08836765,"ECCENTRICITY":0.0001282,"INCLINATION":53.2181,"RA_OF_ASC_NODE":184.4725,"ARG_OF_PERICENTER":82.3067,"MEAN_ANOMALY":277.8071,"EPHEMERIS_TYPE":0,"CLASSIFICATION_TYPE":"U","NORAD_CAT_ID":53277,"ELEMENT_SET_NO":999,"REV_AT_EPOCH":20118,"BSTAR":1.3252e-5,"MEAN_MOTION_DOT":-7.7e-7,"MEAN_MOTION_DDOT":0},{"OBJECT_NAME":"CZ-4B DEB","OBJECT_ID":"2004-035K","EPOCH":"2026-03-08T06:51:30.377664","MEAN_MOTION":15.09293825,"ECCENTRICITY":0.00031468,"INCLINATION":97.5843,"RA_OF_ASC_NODE":91.2716,"ARG_OF_PERICENTER":107.6302,"MEAN_ANOMALY":252.527,"EPHEMERIS_TYPE":0,"CLASSIFICATION_TYPE":"U","NORAD_CAT_ID":29043,"ELEMENT_SET_NO":999,"REV_AT_EPOCH":10418,"BSTAR":0.00031897975,"MEAN_MOTION_DOT":5.021e-5,"MEAN_MOTION_DDOT":0}]
